STARLINK-36799          
1 67958U 26037AC  26065.58334491 -.01730864  82885-3 -49619-2 0  9995
2 67958  42.9997 217.4817 0001469 275.0600 336.4847 15.92364585  2697
STARLINK-36834          
1 67959U 26037AD  26065.58334491 -.01729530  82941-3 -49031-2 0  9995
2 67959  42.9997 217.4649 0001183 267.7150 350.3288 15.92578171  2694
STARLINK-36841          
1 67960U 26037AE  26065.58334491 -.01736475  83478-3 -49480-2 0  9997
2 67960  42.9996 217.4733 0001276 273.9371 340.7164 15.92481470  2697
STARLINK-36912          
1 67961U 26038A   26065.58334491 -.01622189  78126-3 -37070-2 0  9991
2 67961  97.2757  75.6221 0001295  96.8251 138.2021 15.97508368  2695
STARLINK-36881          
1 67962U 26038B   26065.58334491 -.01604230  76587-3 -36507-2 0  9992
2 67962  97.2755  75.6228 0001232  95.0702 142.0729 15.97582401  2692
STARLINK-36357          
1 67963U 26038C   26065.58334491 -.01591369  75649-3 -35730-2 0  9996
2 67963  97.2750  75.6254 0001399  95.5499 147.2669 15.97825588  2695
STARLINK-36349          
1 67964U 26038D   26065.58334491 -.01617912  77918-3 -36557-2 0  9999
2 67964  97.2749  75.6237 0001324  91.1714 148.8047 15.97714056  2699
STARLINK-36806          
1 67965U 26038E   26065.58334491 -.01606315  77102-3 -35775-2 0  9991
2 67965  97.2744  75.6266 0001271  91.8413 154.2658 15.97974891  2695
STARLINK-36820          
1 67966U 26038F   26065.58334491 -.01595843  76266-3 -35314-2 0  9994
2 67966  97.2745  75.6278 0001234  95.4422 153.4233 15.98090436  2694
STARLINK-36819          
1 67967U 26038G   26065.58334491 -.01599257  76679-3 -35139-2 0  9991
2 67967  97.2743  75.6290 0001264  91.2978 160.5395 15.98219190  2698
STARLINK-36812          
1 67968U 26038H   26065.58334491 -.01597393  76603-3 -34890-2 0  9991
2 67968  97.2739  75.6297 0001213  96.2224 158.1627 15.98326788  2697
STARLINK-36709          
1 67969U 26038J   26065.58334491 -.01603203  77351-3 -34502-2 0  9991
2 67969  97.2740  75.6325 0001242 107.2569 153.2013 15.98594766  2697
